[{"OBJECT_NAME":"STARLINK-3933","OBJECT_ID":"2022-051F","EPOCH":"2026-03-09T13:30:33.664032","MEAN_MOTION":15.08838818,"ECCENTRICITY":0.0001494,"INCLINATION":53.2169,"RA_OF_ASC_NODE":129.6906,"ARG_OF_PERICENTER":89.1545,"MEAN_ANOMALY":270.9618,"EPHEMERIS_TYPE":0,"CLASSIFICATION_TYPE":"U","NORAD_CAT_ID":52538,"ELEMENT_SET_NO":999,"REV_AT_EPOCH":21142,"BSTAR":2.7312e-6,"MEAN_MOTION_DOT":-2.45e-6,"MEAN_MOTION_DDOT":0},{"OBJECT_NAME":"CZ-4B DEB","OBJECT_ID":"2010-051H","EPOCH":"2026-03-08T15:03:50.230080","MEAN_MOTION":14.83710316,"ECCENTRICITY":0.01132064,"INCLINATION":97.7035,"RA_OF_ASC_NODE":129.0061,"ARG_OF_PERICENTER":211.6401,"MEAN_ANOMALY":147.7975,"EPHEMERIS_TYPE":0,"CLASSIFICATION_TYPE":"U","NORAD_CAT_ID":38326,"ELEMENT_SET_NO":999,"REV_AT_EPOCH":80705,"BSTAR":0.001509593,"MEAN_MOTION_DOT":0.00013943,"MEAN_MOTION_DDOT":0}]
